NORAD_CAT_ID,OBJECT_NAME,OBJECT_TYPE,EPOCH,MEAN_MOTION,ECCENTRICITY,INCLINATION,RA_OF_ASC_NODE,ARG_OF_PERICENTER,MEAN_ANOMALY,BSTAR,MEAN_MOTION_DOT,MEAN_MOTION_DDOT,TLE_LINE0,TLE_LINE1,TLE_LINE2,SEMIMAJOR_AXIS,PERIOD,APOGEE,PERIGEE,DECAYED
50194.0,STARLINK-3269,PAYLOAD,2023-09-06 09:24:23,15.08839319,0.0001176,53.2182,28.0623,88.9359,271.1768,0.00015775,2.224e-05,0.0,0 STARLINK-3269,1 50194U 21125AQ  23249.39193418  .00002224  00000-0  15775-3 0  9996,2 50194  53.2182  28.0623 0001176  88.9359 271.1768 15.08839319 98602,6917.882,95.438,540.561,538.934,0.0
50194.0,STARLINK-3269,PAYLOAD,2023-09-07 09:15:10,15.08841759,0.0001518,53.2173,23.6025,86.2079,273.9086,8.2809e-05,1.03e-05,0.0,0 STARLINK-3269,1 50194U 21125AQ  23250.38553461  .00001030  00000-0  82809-4 0  9992,2 50194  53.2173  23.6025 0001518  86.2079 273.9086 15.08841759 98221,6917.875,95.437,540.79,538.69,0.0
50194.0,STARLINK-3269,PAYLOAD,2023-09-07 18:47:29,15.08841837,0.000134,53.2176,21.8188,73.0407,287.0732,3.778e-05,3.13e-06,0.0,0 STARLINK-3269,1 50194U 21125AQ  23250.78297526  .00000313  00000-0  37780-4 0  9994,2 50194  53.2176  21.8188 0001340  73.0407 287.0732 15.08841837 98812,6917.875,95.437,540.667,538.813,0.0
50194.0,STARLINK-3269,PAYLOAD,2023-09-08 13:52:06,15.0883938,0.0001341,53.2197,18.2475,113.0095,247.1039,5.6253e-05,6.07e-06,0.0,0 STARLINK-3269,1 50194U 21125AQ  23251.57785403  .00000607  00000-0  56253-4 0  9990,2 50194  53.2197  18.2475 0001341 113.0095 247.1039 15.08839380 98933,6917.882,95.438,540.675,538.82,0.0
50194.0,STARLINK-3269,PAYLOAD,2023-09-08 17:02:52,15.0884511,0.000141,53.2199,17.6549,97.7156,262.3996,8.0107e-05,9.87e-06,0.0,0 STARLINK-3269,1 50194U 21125AQ  23251.71033105  .00000987  00000-0  80107-4 0  9997,2 50194  53.2199  17.6549 0001410  97.7156 262.3996 15.08845110 98426,6917.865,95.437,540.705,538.754,0.0
50194.0,STARLINK-3269,PAYLOAD,2023-09-09 08:56:44,15.08832299,0.0001384,53.2206,14.6836,93.7062,266.4088,9.2056e-06,-1.41e-06,0.0,0 STARLINK-3269,1 50194U 21125AQ  23252.37274219 -.00000141  00000-0  92056-5 0  9993,2 50194  53.2206  14.6836 0001384  93.7062 266.4088 15.08832299 98525,6917.904,95.438,540.726,538.811,0.0
50194.0,STARLINK-3269,PAYLOAD,2023-09-09 13:42:54,15.08835,0.0001491,53.2187,13.7895,99.168,260.9481,3.5683e-05,2.8e-06,0.0,0 STARLINK-3269,1 50194U 21125AQ  23252.57146024  .00000280  00000-0  35683-4 0  9992,2 50194  53.2187  13.7895 0001491  99.1680 260.9481 15.08835000 99084,6917.896,95.438,540.792,538.729,0.0
50194.0,STARLINK-3269,PAYLOAD,2023-09-09 15:18:16,15.08852051,0.0001284,53.2188,13.4913,94.121,265.9929,0.00018477,2.655e-05,0.0,0 STARLINK-3269,1 50194U 21125AQ  23252.63768539  .00002655  00000-0  18477-3 0  9999,2 50194  53.2188  13.4913 0001284  94.1210 265.9929 15.08852051 98566,6917.844,95.437,540.597,538.82,0.0
50194.0,STARLINK-3269,PAYLOAD,2023-09-10 00:50:36,15.08834804,0.0001186,53.2193,11.7106,92.7867,267.326,8.8845e-05,1.126e-05,0.0,0 STARLINK-3269,1 50194U 21125AQ  23253.03513953  .00001126  00000-0  88845-4 0  9991,2 50194  53.2193  11.7106 0001186  92.7867 267.3260 15.08834804 98627,6917.896,95.438,540.582,538.941,0.0
50194.0,STARLINK-3269,PAYLOAD,2023-09-10 13:33:40,15.08846758,0.000135,53.2199,9.3312,96.6396,263.475,7.3883e-05,8.88e-06,0.0,0 STARLINK-3269,1 50194U 21125AQ  23253.56505418  .00000888  00000-0  73883-4 0  9996,2 50194  53.2199   9.3312 0001350  96.6396 263.4750 15.08846758 99238,6917.86,95.437,540.659,538.791,0.0
50194.0,STARLINK-3269,PAYLOAD,2023-09-10 15:09:03,15.08849619,0.0001351,53.2203,9.0342,95.7876,264.327,0.00010315,1.355e-05,0.0,0 STARLINK-3269,1 50194U 21125AQ  23253.63129170  .00001355  00000-0  10315-3 0  9991,2 50194  53.2203   9.0342 0001351  95.7876 264.3270 15.08849619 98716,6917.851,95.437,540.651,538.781,0.0
50194.0,STARLINK-3269,PAYLOAD,2023-09-11 07:02:55,15.08828621,0.0001669,53.2205,6.0632,75.7873,284.3304,0.00026947,4.002e-05,0.0,0 STARLINK-3269,1 50194U 21125AQ  23254.29370123  .00004002  00000-0  26947-3 0  9990,2 50194  53.2205   6.0632 0001669  75.7873 284.3304 15.08828621 98815,6917.915,95.438,540.935,538.626,0.0
50194.0,STARLINK-3269,PAYLOAD,2023-09-11 13:24:28,15.08835309,0.0001444,53.22,4.8707,89.4829,270.6329,8.083e-05,9.99e-06,0.0,0 STARLINK-3269,1 50194U 21125AQ  23254.55866330  .00000999  00000-0  80830-4 0  9992,2 50194  53.2200   4.8707 0001444  89.4829 270.6329 15.08835309 99382,6917.895,95.438,540.759,538.761,0.0
50194.0,STARLINK-3269,PAYLOAD,2023-09-12 00:32:09,15.08847395,0.0001304,53.2189,2.7881,85.6276,274.4865,-2.6568e-05,-7.11e-06,0.0,0 STARLINK-3269,1 50194U 21125AQ  23255.02233793 -.00000711  00000-0 -26568-4 0  9998,2 50194  53.2189   2.7881 0001304  85.6276 274.4865 15.08847395 98921,6917.858,95.437,540.625,538.821,0.0
50194.0,STARLINK-3269,PAYLOAD,2023-09-12 08:29:06,15.08839703,0.0001305,53.2191,1.3023,85.4291,274.6851,5.3987e-05,5.71e-06,0.0,0 STARLINK-3269,1 50194U 21125AQ  23255.35354188  .00000571  00000-0  53987-4 0  9993,2 50194  53.2191   1.3023 0001305  85.4291 274.6851 15.08839703 98979,6917.881,95.438,540.649,538.844,0.0
50194.0,STARLINK-3269,PAYLOAD,2023-09-12 13:15:14,15.08849054,0.0001428,53.2196,0.4102,85.5707,274.5448,6.2869e-05,7.13e-06,0.0,0 STARLINK-3269,1 50194U 21125AQ  23255.55225590  .00000713  00000-0  62869-4 0  9996,2 50194  53.2196   0.4102 0001428  85.5707 274.5448 15.08849054 99535,6917.853,95.437,540.706,538.73,0.0
50194.0,STARLINK-3269,PAYLOAD,2023-09-12 14:50:37,15.08853022,0.0001379,53.2195,0.1128,82.4962,277.6187,7.477e-05,9.03e-06,0.0,0 STARLINK-3269,1 50194U 21125AQ  23255.61849235  .00000903  00000-0  74770-4 0  9996,2 50194  53.2195   0.1128 0001379  82.4962 277.6187 15.08853022 99010,6917.841,95.437,540.66,538.752,0.0
50194.0,STARLINK-3269,PAYLOAD,2023-09-13 06:44:29,15.08847182,0.0001226,53.2187,357.1374,90.3838,269.7294,7.3057e-05,8.75e-06,0.0,0 STARLINK-3269,1 50194U 21125AQ  23256.28089442  .00000875  00000-0  73057-4 0  9991,2 50194  53.2187 357.1374 0001226  90.3838 269.7294 15.08847182 99112,6917.858,95.437,540.572,538.875,0.0
50194.0,STARLINK-3269,PAYLOAD,2023-09-13 13:06:01,15.08848178,0.0001604,53.2188,355.9524,64.1224,295.9933,0.00018939,2.728e-05,0.0,0 STARLINK-3269,1 50194U 21125AQ  23256.54585027  .00002728  00000-0  18939-3 0  9996,2 50194  53.2188 355.9524 0001604  64.1224 295.9933 15.08848178 99683,6917.855,95.437,540.83,538.611,0.0
50194.0,STARLINK-3269,PAYLOAD,2023-09-14 00:13:42,15.08855327,0.0001434,53.2182,353.8701,76.0163,284.0988,0.00011264,1.506e-05,0.0,0 STARLINK-3269,1 50194U 21125AQ  23257.00952397  .00001506  00000-0  11264-3 0  9993,2 50194  53.2182 353.8701 0001434  76.0163 284.0988 15.08855327 99229,6917.834,95.437,540.691,538.707,0.0
50194.0,STARLINK-3269,PAYLOAD,2023-09-14 09:46:04,15.08828971,0.0001694,53.2202,352.0857,111.2732,248.8441,-6.4222e-05,-1.31e-05,0.0,0 STARLINK-3269,1 50194U 21125AQ  23257.40699169 -.00001310  00000-0 -64222-4 0  9990,2 50194  53.2202 352.0857 0001694 111.2732 248.8441 15.08828971 99280,6917.914,95.438,540.951,538.607,0.0
50194.0,STARLINK-3269,PAYLOAD,2023-09-14 12:56:50,15.0882875,0.0001298,53.2188,351.4876,121.118,238.9939,-0.0001435,-2.57e-05,0.0,0 STARLINK-3269,1 50194U 21125AQ  23257.53947370 -.00002570  00000-0 -14350-3 0  9999,2 50194  53.2188 351.4876 0001298 121.1180 238.9939 15.08828750 99832,6917.915,95.438,540.678,538.882,0.0
50194.0,STARLINK-3269,PAYLOAD,2023-09-15 09:36:51,15.08836008,0.0001365,53.22,347.6275,84.6643,275.4505,-2.2259e-06,-3.23e-06,0.0,0 STARLINK-3269,1 50194U 21125AQ  23258.40059228 -.00000323  00000-0 -22259-5 0  9995,2 50194  53.2200 347.6275 0001365  84.6643 275.4505 15.08836008 99435,6917.893,95.438,540.702,538.813,0.0
50194.0,STARLINK-3269,PAYLOAD,2023-09-15 12:47:36,15.08846701,0.0001374,53.2189,347.0291,107.1209,252.9933,4.1872e-05,3.79e-06,0.0,0 STARLINK-3269,1 50194U 21125AQ  23258.53306388  .00000379  00000-0  41872-4 0  9991,2 50194  53.2189 347.0291 0001374 107.1209 252.9933 15.08846701 99988,6917.86,95.437,540.675,538.774,0.0
50194.0,STARLINK-3269,PAYLOAD,2023-09-16 09:27:38,15.08837905,0.0001433,53.2193,343.1651,104.9011,255.214,0.00045191,6.911e-05,0.0,0 STARLINK-3269,1 50194U 21125AQ  23259.39419535  .00006911  00000-0  45191-3 0  9990,2 50194  53.2193 343.1651 0001433 104.9011 255.2140 15.08837905 99580,6917.887,95.438,540.743,538.76,0.0
50194.0,STARLINK-3269,PAYLOAD,2023-09-16 12:38:24,15.08843752,0.0001295,53.218,342.5694,102.5054,257.6083,0.00042027,6.408e-05,0.0,0 STARLINK-3269,1 50194U 21125AQ  23259.52667318  .00006408  00000-0  42027-3 0  9995,2 50194  53.2180 342.5694 0001295 102.5054 257.6083 15.08843752100136,6917.869,95.437,540.63,538.838,0.0
50194.0,STARLINK-3269,PAYLOAD,2023-09-17 12:29:10,15.08851629,0.0001452,53.2184,338.1093,107.1001,253.0151,0.00013613,1.88e-05,0.0,0 STARLINK-3269,1 50194U 21125AQ  23260.52026606  .00001880  00000-0  13613-3 0  9994,2 50194  53.2184 338.1093 0001452 107.1001 253.0151 15.08851629100286,6917.845,95.437,540.714,538.705,0.0
50194.0,STARLINK-3269,PAYLOAD,2023-09-18 10:44:35,15.08841303,0.0001569,53.2199,333.9472,93.9291,266.188,1.935e-05,2e-07,0.0,0 STARLINK-3269,1 50194U 21125AQ  23261.44763343  .00000020  00000-0  19350-4 0  9992,2 50194  53.2199 333.9472 0001569  93.9291 266.1880 15.08841303 99894,6917.876,95.437,540.827,538.656,0.0
50194.0,STARLINK-3269,PAYLOAD,2023-09-18 12:19:58,15.08845087,0.0001502,53.2189,333.6484,94.0442,266.0722,5.6945e-05,6.19e-06,0.0,0 STARLINK-3269,1 50194U 21125AQ  23261.51386962  .00000619  00000-0  56945-4 0  9993,2 50194  53.2189 333.6484 0001502  94.0442 266.0722 15.08845087100430,6917.865,95.437,540.769,538.691,0.0
50194.0,STARLINK-3269,PAYLOAD,2023-09-19 10:35:21,15.08857684,0.0001565,53.2177,329.4856,93.1465,266.9706,0.0003191,4.797e-05,0.0,0 STARLINK-3269,1 50194U 21125AQ  23262.44121887  .00004797  00000-0  31910-3 0  9994,2 50194  53.2177 329.4856 0001565  93.1465 266.9706 15.08857684100041,6917.826,95.436,540.774,538.609,0.0
